KUIPER-00085            
1 64831U 25151R   26061.91924613  .00000687  00000+0  11916-3 0  9997
2 64831  51.9034 318.0655 0001082 105.7675 254.3407 14.79936172 34478
KUIPER-00086            
1 64832U 25151S   26062.04351177  .00002481  00000+0  35427-3 0  9999
2 64832  51.9023 327.4881 0000708  74.9018 285.2023 14.79938691 34356
KUIPER-00087            
1 64833U 25151T   26062.50001156  .00027139  00000+0  35440-2 0  9991
2 64833  51.8994 307.9560 0000832  58.6661 112.1299 14.80293715  5232
KUIPER-00089            
1 64834U 25151U   26061.92034906 -.00007287  00000+0 -93087-3 0  9992
2 64834  51.9011 315.5084 0000470  96.6678 263.4338 14.79798743 34514
KUIPER-00090            
1 64835U 25151V   26061.93003232 -.00001227  00000+0 -13193-3 0  9990
2 64835  51.9008 308.0163 0001027 105.4023 254.7052 14.79926445 34617
KUIPER-00091            
1 64836U 25151W   26061.99259810  .00005119  00000+0  70220-3 0  9998
2 64836  51.9025 312.7173 0001034 101.8737 258.2341 14.79797933 34551
KUIPER-00092            
1 64837U 25151X   26061.91653857  .00005473  00000+0  74591-3 0  9998
2 64837  51.9019 320.5475 0000930  92.2849 267.8220 14.79954495 35650
KUIPER-00093            
1 64838U 25151Y   26061.91376142  .00005716  00000+0  77704-3 0  9997
2 64838  51.9011 323.0405 0000967  90.5458 269.5615 14.79992030 34407
KUIPER-00094            
1 64839U 25151Z   26061.93555964  .00006885  00000+0  50924-3 0  9994
2 64839  51.8893 293.3985 0005153 262.8063  97.2324 15.04195966 34826
KUIPER-00081            
1 65132U 25171A   26062.50909807  .00006333  00000+0  85806-3 0  9991
2 65132  51.9012 175.4036 0000321 117.6881 242.4114 14.79978467 32129
KUIPER-00088            
1 65133U 25171B   26062.50001156 -.00032689  00000+0 -46484-2 0  9995
2 65133  51.8989 192.8262 0001128 170.9064 306.5451 14.76445675  5221
KUIPER-00095            
1 65134U 25171C   26062.50001156  .00026157  00000+0  35004-2 0  9993
2 65134  51.8977 173.1538 0001091  82.3510 146.4624 14.79281923  5756
KUIPER-00096            
1 65135U 25171D   26062.39710787  .00003901  00000+0  54038-3 0  9999
2 65135  51.9013 185.9096 0000399 141.6411 218.4580 14.79937178 31961
KUIPER-00097            
1 65136U 25171E   26061.65157964 -.00002472  00000+0 -29543-3 0  9997
2 65136  51.9005 191.8311 0000286 104.5909 255.5085 14.79926942 31806
KUIPER-00098            
1 65137U 25171F   26062.39172074  .00005965  00000+0  81050-3 0  9998
2 65137  51.9006 190.9367 0001942 140.6277 219.4827 14.79948724 31230
KUIPER-00099            
1 65138U 25171G   26062.50456176  .00006332  00000+0  86055-3 0  9999
2 65138  51.9021 180.4292 0000493  49.2945 310.8060 14.79844415 32042
KUIPER-00100            
1 65139U 25171H   26062.47272838  .00001151  00000+0  17994-3 0  9997
2 65139  51.9027 178.0424 0000569 100.9299 259.1728 14.79940985 32078
