[{"OBJECT_NAME":"KUIPER-00085","OBJECT_ID":"2025-151R","EPOCH":"2026-03-02T22:03:42.865632","MEAN_MOTION":14.79936172,"ECCENTRICITY":0.0001082,"INCLINATION":51.9034,"RA_OF_ASC_NODE":318.0655,"ARG_OF_PERICENTER":105.7675,"MEAN_ANOMALY":254.3407,"EPHEMERIS_TYPE":0,"CLASSIFICATION_TYPE":"U","NORAD_CAT_ID":64831,"ELEMENT_SET_NO":999,"REV_AT_EPOCH":3447,"BSTAR":0.00011916,"MEAN_MOTION_DOT":6.87e-6,"MEAN_MOTION_DDOT":0},{"OBJECT_NAME":"KUIPER-00086","OBJECT_ID":"2025-151S","EPOCH":"2026-03-03T01:02:39.416928","MEAN_MOTION":14.79938691,"ECCENTRICITY":7.08e-5,"INCLINATION":51.9023,"RA_OF_ASC_NODE":327.4881,"ARG_OF_PERICENTER":74.9018,"MEAN_ANOMALY":285.2023,"EPHEMERIS_TYPE":0,"CLASSIFICATION_TYPE":"U","NORAD_CAT_ID":64832,"ELEMENT_SET_NO":999,"REV_AT_EPOCH":3435,"BSTAR":0.00035427,"MEAN_MOTION_DOT":2.481e-5,"MEAN_MOTION_DDOT":0},{"OBJECT_NAME":"KUIPER-00087","OBJECT_ID":"2025-151T","EPOCH":"2026-03-03T12:00:00.998784","MEAN_MOTION":14.80293715,"ECCENTRICITY":8.32e-5,"INCLINATION":51.8994,"RA_OF_ASC_NODE":307.956,"ARG_OF_PERICENTER":58.6661,"MEAN_ANOMALY":112.1299,"EPHEMERIS_TYPE":0,"CLASSIFICATION_TYPE":"U","NORAD_CAT_ID":64833,"ELEMENT_SET_NO":999,"REV_AT_EPOCH":523,"BSTAR":0.003544,"MEAN_MOTION_DOT":0.00027139,"MEAN_MOTION_DDOT":0},{"OBJECT_NAME":"KUIPER-00089","OBJECT_ID":"2025-151U","EPOCH":"2026-03-02T22:05:18.158784","MEAN_MOTION":14.79798743,"ECCENTRICITY":4.7e-5,"INCLINATION":51.9011,"RA_OF_ASC_NODE":315.5084,"ARG_OF_PERICENTER":96.6678,"MEAN_ANOMALY":263.4338,"EPHEMERIS_TYPE":0,"CLASSIFICATION_TYPE":"U","NORAD_CAT_ID":64834,"ELEMENT_SET_NO":999,"REV_AT_EPOCH":3451,"BSTAR":-0.00093087,"MEAN_MOTION_DOT":-7.287e-5,"MEAN_MOTION_DDOT":0},{"OBJECT_NAME":"KUIPER-00090","OBJECT_ID":"2025-151V","EPOCH":"2026-03-02T22:19:14.792448","MEAN_MOTION":14.79926445,"ECCENTRICITY":0.0001027,"INCLINATION":51.9008,"RA_OF_ASC_NODE":308.0163,"ARG_OF_PERICENTER":105.4023,"MEAN_ANOMALY":254.7052,"EPHEMERIS_TYPE":0,"CLASSIFICATION_TYPE":"U","NORAD_CAT_ID":64835,"ELEMENT_SET_NO":999,"REV_AT_EPOCH":3461,"BSTAR":-0.00013193,"MEAN_MOTION_DOT":-1.227e-5,"MEAN_MOTION_DDOT":0},{"OBJECT_NAME":"KUIPER-00091","OBJECT_ID":"2025-151W","EPOCH":"2026-03-02T23:49:20.475840","MEAN_MOTION":14.79797933,"ECCENTRICITY":0.0001034,"INCLINATION":51.9025,"RA_OF_ASC_NODE":312.7173,"ARG_OF_PERICENTER":101.8737,"MEAN_ANOMALY":258.2341,"EPHEMERIS_TYPE":0,"CLASSIFICATION_TYPE":"U","NORAD_CAT_ID":64836,"ELEMENT_SET_NO":999,"REV_AT_EPOCH":3455,"BSTAR":0.0007022,"MEAN_MOTION_DOT":5.119e-5,"MEAN_MOTION_DDOT":0},{"OBJECT_NAME":"KUIPER-00092","OBJECT_ID":"2025-151X","EPOCH":"2026-03-02T21:59:48.932448","MEAN_MOTION":14.79954495,"ECCENTRICITY":9.3e-5,"INCLINATION":51.9019,"RA_OF_ASC_NODE":320.5475,"ARG_OF_PERICENTER":92.2849,"MEAN_ANOMALY":267.822,"EPHEMERIS_TYPE":0,"CLASSIFICATION_TYPE":"U","NORAD_CAT_ID":64837,"ELEMENT_SET_NO":999,"REV_AT_EPOCH":3565,"BSTAR":0.00074591,"MEAN_MOTION_DOT":5.473e-5,"MEAN_MOTION_DDOT":0},{"OBJECT_NAME":"KUIPER-00093","OBJECT_ID":"2025-151Y","EPOCH":"2026-03-02T21:55:48.986688","MEAN_MOTION":14.7999203,"ECCENTRICITY":9.67e-5,"INCLINATION":51.9011,"RA_OF_ASC_NODE":323.0405,"ARG_OF_PERICENTER":90.5458,"MEAN_ANOMALY":269.5615,"EPHEMERIS_TYPE":0,"CLASSIFICATION_TYPE":"U","NORAD_CAT_ID":64838,"ELEMENT_SET_NO":999,"REV_AT_EPOCH":3440,"BSTAR":0.00077704,"MEAN_MOTION_DOT":5.716e-5,"MEAN_MOTION_DDOT":0},{"OBJECT_NAME":"KUIPER-00094","OBJECT_ID":"2025-151Z","EPOCH":"2026-03-02T22:27:12.352896","MEAN_MOTION":15.04195966,"ECCENTRICITY":0.0005153,"INCLINATION":51.8893,"RA_OF_ASC_NODE":293.3985,"ARG_OF_PERICENTER":262.8063,"MEAN_ANOMALY":97.2324,"EPHEMERIS_TYPE":0,"CLASSIFICATION_TYPE":"U","NORAD_CAT_ID":64839,"ELEMENT_SET_NO":999,"REV_AT_EPOCH":3482,"BSTAR":0.00050924,"MEAN_MOTION_DOT":6.885e-5,"MEAN_MOTION_DDOT":0},{"OBJECT_NAME":"KUIPER-00081","OBJECT_ID":"2025-171A","EPOCH":"2026-03-03T12:13:06.073248","MEAN_MOTION":14.79978467,"ECCENTRICITY":3.21e-5,"INCLINATION":51.9012,"RA_OF_ASC_NODE":175.4036,"ARG_OF_PERICENTER":117.6881,"MEAN_ANOMALY":242.4114,"EPHEMERIS_TYPE":0,"CLASSIFICATION_TYPE":"U","NORAD_CAT_ID":65132,"ELEMENT_SET_NO":999,"REV_AT_EPOCH":3212,"BSTAR":0.00085806,"MEAN_MOTION_DOT":6.333e-5,"MEAN_MOTION_DDOT":0},{"OBJECT_NAME":"KUIPER-00088","OBJECT_ID":"2025-171B","EPOCH":"2026-03-03T12:00:00.998784","MEAN_MOTION":14.76445675,"ECCENTRICITY":0.0001128,"INCLINATION":51.8989,"RA_OF_ASC_NODE":192.8262,"ARG_OF_PERICENTER":170.9064,"MEAN_ANOMALY":306.5451,"EPHEMERIS_TYPE":0,"CLASSIFICATION_TYPE":"U","NORAD_CAT_ID":65133,"ELEMENT_SET_NO":999,"REV_AT_EPOCH":522,"BSTAR":-0.0046484,"MEAN_MOTION_DOT":-0.00032689,"MEAN_MOTION_DDOT":0},{"OBJECT_NAME":"KUIPER-00095","OBJECT_ID":"2025-171C","EPOCH":"2026-03-03T12:00:00.998784","MEAN_MOTION":14.79281923,"ECCENTRICITY":0.0001091,"INCLINATION":51.8977,"RA_OF_ASC_NODE":173.1538,"ARG_OF_PERICENTER":82.351,"MEAN_ANOMALY":146.4624,"EPHEMERIS_TYPE":0,"CLASSIFICATION_TYPE":"U","NORAD_CAT_ID":65134,"ELEMENT_SET_NO":999,"REV_AT_EPOCH":575,"BSTAR":0.0035004,"MEAN_MOTION_DOT":0.00026157,"MEAN_MOTION_DDOT":0},{"OBJECT_NAME":"KUIPER-00096","OBJECT_ID":"2025-171D","EPOCH":"2026-03-03T09:31:50.119968","MEAN_MOTION":14.79937178,"ECCENTRICITY":3.99e-5,"INCLINATION":51.9013,"RA_OF_ASC_NODE":185.9096,"ARG_OF_PERICENTER":141.6411,"MEAN_ANOMALY":218.458,"EPHEMERIS_TYPE":0,"CLASSIFICATION_TYPE":"U","NORAD_CAT_ID":65135,"ELEMENT_SET_NO":999,"REV_AT_EPOCH":3196,"BSTAR":0.00054038,"MEAN_MOTION_DOT":3.901e-5,"MEAN_MOTION_DDOT":0},{"OBJECT_NAME":"KUIPER-00097","OBJECT_ID":"2025-171E","EPOCH":"2026-03-02T15:38:16.480896","MEAN_MOTION":14.79926942,"ECCENTRICITY":2.86e-5,"INCLINATION":51.9005,"RA_OF_ASC_NODE":191.8311,"ARG_OF_PERICENTER":104.5909,"MEAN_ANOMALY":255.5085,"EPHEMERIS_TYPE":0,"CLASSIFICATION_TYPE":"U","NORAD_CAT_ID":65136,"ELEMENT_SET_NO":999,"REV_AT_EPOCH":3180,"BSTAR":-0.00029543,"MEAN_MOTION_DOT":-2.472e-5,"MEAN_MOTION_DDOT":0},{"OBJECT_NAME":"KUIPER-00098","OBJECT_ID":"2025-171F","EPOCH":"2026-03-03T09:24:04.671936","MEAN_MOTION":14.79948724,"ECCENTRICITY":0.0001942,"INCLINATION":51.9006,"RA_OF_ASC_NODE":190.9367,"ARG_OF_PERICENTER":140.6277,"MEAN_ANOMALY":219.4827,"EPHEMERIS_TYPE":0,"CLASSIFICATION_TYPE":"U","NORAD_CAT_ID":65137,"ELEMENT_SET_NO":999,"REV_AT_EPOCH":3123,"BSTAR":0.0008105,"MEAN_MOTION_DOT":5.965e-5,"MEAN_MOTION_DDOT":0},{"OBJECT_NAME":"KUIPER-00099","OBJECT_ID":"2025-171G","EPOCH":"2026-03-03T12:06:34.136064","MEAN_MOTION":14.79844415,"ECCENTRICITY":4.93e-5,"INCLINATION":51.9021,"RA_OF_ASC_NODE":180.4292,"ARG_OF_PERICENTER":49.2945,"MEAN_ANOMALY":310.806,"EPHEMERIS_TYPE":0,"CLASSIFICATION_TYPE":"U","NORAD_CAT_ID":65138,"ELEMENT_SET_NO":999,"REV_AT_EPOCH":3204,"BSTAR":0.00086055,"MEAN_MOTION_DOT":6.332e-5,"MEAN_MOTION_DDOT":0},{"OBJECT_NAME":"KUIPER-00100","OBJECT_ID":"2025-171H","EPOCH":"2026-03-03T11:20:43.732032","MEAN_MOTION":14.79940985,"ECCENTRICITY":5.69e-5,"INCLINATION":51.9027,"RA_OF_ASC_NODE":178.0424,"ARG_OF_PERICENTER":100.9299,"MEAN_ANOMALY":259.1728,"EPHEMERIS_TYPE":0,"CLASSIFICATION_TYPE":"U","NORAD_CAT_ID":65139,"ELEMENT_SET_NO":999,"REV_AT_EPOCH":3207,"BSTAR":0.00017994,"MEAN_MOTION_DOT":1.151e-5,"MEAN_MOTION_DDOT":0}]
